TRANSIT 16 [?]          
1 02807U 67048A   18231.53918800  .00000059  00000-0  77245-4 0  9994
2 02807  89.6176  88.3816 0018507 282.0516  92.6784 13.50186494522225
TRANSIT 17 [?]          
1 02965U 67092A   18231.58790205  .00000042  00000-0  44607-4 0  9998
2 02965  89.2585 227.3006 0049831  72.7859  65.4914 13.52904483509624
TRANSIT 18 [?]          
1 03133U 68012A   18232.20037045  .00000019  00000-0  14627-4 0  9998
2 03133  89.9672 273.6793 0075323 348.8111  77.3045 13.51019520484937
NNSS 19 [?]             
1 04507U 70067A   18231.50066882  .00000009  00000-0 -35218-5 0  9990
2 04507  89.8457 255.9040 0173937 110.6678 251.3219 13.50691259361838
NNSS O-20 [?]           
1 06909U 73081A   18231.25284408  .00000044  00000-0  33649-4 0  9998
2 06909  89.8219 304.6737 0158079 163.1018 197.5497 13.70491684437776
TRANSAT [?]             
1 10457U 77106A   18231.36198712  .00000043  00000-0  52538-4 0  9994
2 10457  89.7562 161.6953 0025150 342.3211 130.5602 13.48592802  7226
NOVA I [?]              
1 12458U 81044A   18231.68303880  .00000009  00000-0  85321-6 0  9992
2 12458  89.9412 119.3210 0012698 272.6161 113.2495 13.22986055798801
NOVA 3 [?]              
1 15362U 84110A   18231.47137043  .00000056  00000-0  11237-3 0  9993
2 15362  90.0515  56.8998 0033329 131.9203 256.8493 13.22756797633696
OSCAR 30 [?]            
1 15935U 85066A   18231.54613641  .00000041  00000-0  55650-4 0  9993
2 15935  90.1378  55.9959 0171062  61.3413 323.2916 13.35652085607793
OSCAR 24 [?]            
1 15936U 85066B   18231.48678159  .00000026  00000-0  28307-4 0  9994
2 15936  90.1264  49.2838 0171636  66.0443 346.1076 13.35524130609941
POLAR BEAR [?]          
1 17070U 86088A   18231.35255036  .00000029  00000-0  18796-4 0  9995
2 17070  89.5311 305.9758 0036663 255.8685 148.6286 13.74760592592852
OSCAR 27 [?]            
1 18361U 87080A   18231.36852255  .00000037  00000-0  48672-4 0  9994
2 18361  90.3273 349.4968 0103054 315.8242  43.4709 13.44459462516456
OSCAR 29 [?]            
1 18362U 87080B   18231.36426698  .00000055  00000-0  79670-4 0  9995
2 18362  90.3279 349.7336 0105196 333.5120  82.8196 13.44053617516354
OSCAR 23 [?]            
1 19070U 88033A   18232.16971413  .00000004  00000-0 -90283-5 0  9999
2 19070  90.3684 288.6820 0191934  48.4566   4.5384 13.27432594468342
OSCAR 32 [?]            
1 19071U 88033B   18231.61925068 -.00000004  00000-0 -24465-4 0  9993
2 19071  90.3683 288.7354 0189652  39.1412 113.6204 13.27614016468227
NOVA 11 [?]             
1 19223U 88052A   18231.59349557 -.00000015  00000-0 -57741-4 0  9998
2 19223  89.9596  85.4384 0030731 173.4254 212.9972 13.22671743456224
OSCAR 25 [?]            
1 19419U 88074A   18231.52083378  .00000054  00000-0  79068-4 0  9995
2 19419  89.9895  18.3939 0094863 307.6506  93.0133 13.42193671467917
OSCAR 31 [?]            
1 19420U 88074B   18231.47928253  .00000080  00000-0  12512-3 0  9990
2 19420  89.9903  18.4410 0092897 301.8722 120.6091 13.42208647468017
